NORAD_CAT_ID,OBJECT_NAME,OBJECT_TYPE,EPOCH,MEAN_MOTION,ECCENTRICITY,INCLINATION,RA_OF_ASC_NODE,ARG_OF_PERICENTER,MEAN_ANOMALY,BSTAR,MEAN_MOTION_DOT,MEAN_MOTION_DDOT,TLE_LINE0,TLE_LINE1,TLE_LINE2,SEMIMAJOR_AXIS,PERIOD,APOGEE,PERIGEE,DECAYED
53005.0,STARLINK-4288,PAYLOAD,2022-09-30 22:00:00,15.08827282,0.0001584,53.2164,331.4896,61.7,134.2012,0.00054179,8.342e-05,0.0,0 STARLINK-4288,1 53005U 22076V   22273.91667824  .00008342  00000-0  54179-3 0  9995,2 53005  53.2164 331.4896 0001584  61.7000 134.2012 15.08827282  1302,6917.919,95.438,540.88,538.688,0.0
53005.0,STARLINK-4288,PAYLOAD,2022-10-01 06:00:00,15.0875437,0.0001431,53.2162,329.9928,67.2822,140.1383,0.0063058,0.00101276,0.0,0 STARLINK-4288,1 53005U 22076V   22274.25001157  .00101276  00000-0  63058-2 0  9999,2 53005  53.2162 329.9928 0001431  67.2822 140.1383 15.08754370 13792,6918.142,95.443,540.997,539.0169999999998,0.0
53005.0,STARLINK-4288,PAYLOAD,2022-10-01 14:00:01,15.08692844,0.0001422,53.2161,328.4980000000001,50.5779,168.3103,0.012851,0.00209539,0.0,0 STARLINK-4288,1 53005U 22076V   22274.58334491  .00209539  00000-0  12851-1 0  9990,2 53005  53.2161 328.4980 0001422  50.5779 168.3103 15.08692844 13844,6918.33,95.447,541.179,539.211,0.0
53005.0,STARLINK-4288,PAYLOAD,2022-10-01 22:00:00,15.08853516,0.000112,53.2161,326.9999,50.2588,180.142,0.00092108,0.00014407,0.0,0 STARLINK-4288,1 53005U 22076V   22274.91667824  .00014407  00000-0  92108-3 0  9999,2 53005  53.2161 326.9999 0001120  50.2588 180.1420 15.08853516  1304,6917.839,95.437,540.479,538.929,0.0
53005.0,STARLINK-4288,PAYLOAD,2022-10-02 06:00:00,15.08891821,0.0001234,53.2162,325.5038,55.3873,186.6245,-0.002351,-0.00037562,0.0,0 STARLINK-4288,1 53005U 22076V   22275.25001157 -.00037562  00000-0 -23510-2 0  9997,2 53005  53.2162 325.5038 0001234  55.3873 186.6245 15.08891821 13943,6917.722,95.434,540.441,538.7330000000002,0.0
53005.0,STARLINK-4288,PAYLOAD,2022-10-02 14:00:01,15.08838647,0.0001457,53.2163,324.0086,47.4438,206.2211,0.0032961999999999,0.00052561,0.0,0 STARLINK-4288,1 53005U 22076V   22275.58334491  .00052561  00000-0  32962-2 0  9998,2 53005  53.2163 324.0086 0001457  47.4438 206.2211 15.08838647  1303,6917.885,95.438,540.757,538.742,0.0
53005.0,STARLINK-4288,PAYLOAD,2022-10-02 22:00:00,15.08858321,0.0001330999999999,53.2165,322.5103,53.2409,212.0451,0.001744,0.00027591,0.0,0 STARLINK-4288,1 53005U 22076V   22275.91667824  .00027591  00000-0  17440-2 0  9993,2 53005  53.2165 322.5103 0001331  53.2409 212.0451 15.08858321  1304,6917.824000000001,95.436,540.61,538.769,0.0
53005.0,STARLINK-4288,PAYLOAD,2022-10-03 14:00:01,15.08869842,0.0001608,53.2166,319.5191,49.1998,239.3833,0.00044519,6.809999999999999e-05,0.0,0 STARLINK-4288,1 53005U 22076V   22276.58334491  .00006810  00000-0  44519-3 0  9997,2 53005  53.2166 319.5191 0001608  49.1998 239.3833 15.08869842  1308,6917.7890000000025,95.436,540.7669999999998,538.5419999999998,0.0
53005.0,STARLINK-4288,PAYLOAD,2022-10-03 22:00:00,15.08843165,0.0001498,53.2169,318.0208,55.4448,244.7792,-0.00029162,-4.927e-05,0.0,0 STARLINK-4288,1 53005U 22076V   22276.91667824 -.00004927  00000-0 -29162-3 0  9999,2 53005  53.2169 318.0208 0001498  55.4448 244.7792 15.08843165 14196,6917.871,95.437,540.7719999999998,538.6990000000002,0.0
53005.0,STARLINK-4288,PAYLOAD,2022-10-04 14:00:01,15.08832149,0.0001689,53.2168,315.0298,50.2113,273.2221,2.7003e-05,1.42e-06,0.0,0 STARLINK-4288,1 53005U 22076V   22277.58334491  .00000142  00000-0  27003-4 0  9990,2 53005  53.2168 315.0298 0001689  50.2113 273.2221 15.08832149  1308,6917.904,95.438,540.938,538.601,0.0
53005.0,STARLINK-4288,PAYLOAD,2022-10-04 22:00:00,15.08800295,0.0001588999999999,53.217,313.5317,57.9702,277.0587,0.0032676,0.00052043,0.0,0 STARLINK-4288,1 53005U 22076V   22277.91667824  .00052043  00000-0  32676-2 0  9993,2 53005  53.2170 313.5317 0001589  57.9702 277.0587 15.08800295  1307,6918.002,95.44,540.966,538.7669999999998,0.0
53005.0,STARLINK-4288,PAYLOAD,2022-10-05 08:00:01,15.08848462,0.0001695,53.2169,311.6626,55.3032,24.1835,-0.0013233,-0.00021292,0.0,0 STARLINK-4288,1 53005U 22076V   22278.33334491 -.00021292  00000-0 -13233-2 0  9993,2 53005  53.2169 311.6626 0001695  55.3032  24.1835 15.08848462 14403,6917.855,95.437,540.8919999999998,538.547,0.0
53005.0,STARLINK-4288,PAYLOAD,2022-10-05 14:00:01,15.08840315,0.0001699,53.2167,310.5407,50.9806,307.2702,-0.00071971,-0.00011724,0.0,0 STARLINK-4288,1 53005U 22076V   22278.58335648 -.00011724  00000-0 -71971-3 0  9998,2 53005  53.2167 310.5407 0001699  50.9806 307.2702 15.08840315  1302,6917.879,95.438,540.92,538.569,0.0
53005.0,STARLINK-4288,PAYLOAD,2022-10-05 22:00:00,15.0879437,0.0001561999999999,53.2167,309.0427,59.474,310.3163,0.0023913,0.00037927,0.0,0 STARLINK-4288,1 53005U 22076V   22278.91667824  .00037927  00000-0  23913-2 0  9992,2 53005  53.2167 309.0427 0001562  59.4740 310.3163 15.08794370  1302,6918.02,95.44,540.965,538.804,0.0
53005.0,STARLINK-4288,PAYLOAD,2022-10-06 14:00:01,15.08823076,0.0001733999999999,53.2161,306.0518,53.5478,339.3785,0.0027383,0.00043542,0.0,0 STARLINK-4288,1 53005U 22076V   22279.58334491  .00043542  00000-0  27383-2 0  9992,2 53005  53.2161 306.0518 0001734  53.5478 339.3785 15.08823076  1305,6917.932,95.439,540.997,538.5980000000002,0.0
53005.0,STARLINK-4288,PAYLOAD,2022-10-06 22:42:55,15.08839238,0.0001557,53.2159,304.4199,61.4344,145.0028,0.00093824,0.00014675,0.0,0 STARLINK-4288,1 53005U 22076V   22279.94646991  .00014675  00000-0  93824-3 0  9992,2 53005  53.2159 304.4199 0001557  61.4344 145.0028 15.08839238  1301,6917.8830000000025,95.438,540.825,538.6709999999998,0.0
53005.0,STARLINK-4288,PAYLOAD,2022-10-07 00:00:00,15.08844258,0.0001556,53.216,304.1795,62.844,74.5803,0.00042604,6.500000000000001e-05,0.0,0 STARLINK-4288,1 53005U 22076V   22280.00001157  .00006500  00000-0  42604-3 0  9998,2 53005  53.2160 304.1795 0001556  62.8440  74.5803 15.08844258 14661,6917.8669999999975,95.437,540.809,538.656,0.0
53005.0,STARLINK-4288,PAYLOAD,2022-10-07 14:00:01,15.08845048,0.0001585999999999,53.2153,301.5625,51.6071,16.1257,-0.00036309,-6.063e-05,0.0,0 STARLINK-4288,1 53005U 22076V   22280.58334491 -.00006063  00000-0 -36309-3 0  9992,2 53005  53.2153 301.5625 0001586  51.6071  16.1257 15.08845048  1305,6917.865,95.437,540.827,538.633,0.0
53005.0,STARLINK-4288,PAYLOAD,2022-10-07 22:00:00,15.08813857,0.000135,53.2152,300.0644,58.6187,20.7216,0.0014257999999999,0.0002246,0.0,0 STARLINK-4288,1 53005U 22076V   22280.91667824  .00022460  00000-0  14258-2 0  9993,2 53005  53.2152 300.0644 0001350  58.6187  20.7216 15.08813857  1302,6917.96,95.439,540.759,538.891,0.0
53005.0,STARLINK-4288,PAYLOAD,2022-10-08 14:00:01,15.08845359,0.0001578,53.2147,297.0731,51.3578,51.1378,-0.0012586,-0.00020266,0.0,0 STARLINK-4288,1 53005U 22076V   22281.58334491 -.00020266  00000-0 -12586-2 0  9994,2 53005  53.2147 297.0731 0001578  51.3578  51.1378 15.08845359  1303,6917.864000000001,95.437,540.821,538.637,0.0
53005.0,STARLINK-4288,PAYLOAD,2022-10-08 22:00:00,15.08804602,0.0001503,53.2146,295.5748,61.6029,52.497,0.0038403,0.00061303,0.0,0 STARLINK-4288,1 53005U 22076V   22281.91667824  .00061303  00000-0  38403-2 0  9991,2 53005  53.2146 295.5748 0001503  61.6029  52.4970 15.08804602  1304,6917.989000000001,95.44,540.893,538.814,0.0
53005.0,STARLINK-4288,PAYLOAD,2022-10-09 14:00:01,15.0884233,0.0001604,53.2145,292.5833,52.5069,84.7783,0.00033601,5.064e-05,0.0,0 STARLINK-4288,1 53005U 22076V   22282.58334491  .00005064  00000-0  33601-3 0  9994,2 53005  53.2145 292.5833 0001604  52.5069  84.7783 15.08842330 15057,6917.873000000001,95.437,540.8480000000002,538.629,0.0
53005.0,STARLINK-4288,PAYLOAD,2022-10-09 22:00:00,15.08834296,0.0001418,53.2146,291.0851,59.0298,89.8608,0.00075334,0.0001171999999999,0.0,0 STARLINK-4288,1 53005U 22076V   22282.91667824  .00011720  00000-0  75334-3 0  9995,2 53005  53.2146 291.0851 0001418  59.0298  89.8608 15.08834296  1308,6917.898,95.438,540.744,538.7819999999998,0.0
53005.0,STARLINK-4288,PAYLOAD,2022-10-10 14:00:01,15.08849199,0.0001609,53.2159,288.0989,50.1613,121.9018,-0.0028509,-0.00045386,0.0,0 STARLINK-4288,1 53005U 22076V   22283.58334491 -.00045386  00000-0 -28509-2 0  9998,2 53005  53.2159 288.0989 0001609  50.1613 121.9018 15.08849199  1306,6917.852,95.437,540.83,538.604,0.0
53005.0,STARLINK-4288,PAYLOAD,2022-10-10 16:00:00,15.088381,0.0001654,53.2173,287.7288,49.6372,215.3012,-0.00018528,-3.235e-05,0.0,0 STARLINK-4288,1 53005U 22076V   22283.66667824 -.00003235  00000-0 -18528-3 0  9994,2 53005  53.2173 287.7288 0001654  49.6372 215.3012 15.08838100 15212,6917.886,95.438,540.895,538.607,0.0
53005.0,STARLINK-4288,PAYLOAD,2022-10-10 22:00:01,15.08837796,0.0001606,53.2172,286.6054,52.7394,130.9568,-0.00017758,-3.113e-05,0.0,0 STARLINK-4288,1 53005U 22076V   22283.91668981 -.00003113  00000-0 -17758-3 0  9996,2 53005  53.2172 286.6054 0001606  52.7394 130.9568 15.08837796  1309,6917.887,95.438,540.863,538.641,0.0
53005.0,STARLINK-4288,PAYLOAD,2022-10-11 14:00:01,15.087928,0.0001686,53.2162,283.6094,52.757,154.0682,0.0054167,0.00086871,0.0,0 STARLINK-4288,1 53005U 22076V   22284.58334491  .00086871  00000-0  54167-2 0  9990,2 53005  53.2162 283.6094 0001686  52.7570 154.0682 15.08792800  1303,6918.025,95.441,541.056,538.7230000000002,0.0
53005.0,STARLINK-4288,PAYLOAD,2022-10-11 22:00:00,15.08837621,0.0001448,53.2172,282.1162,72.2849,146.1253,-0.0001634,-2.887e-05,0.0,0 STARLINK-4288,1 53005U 22076V   22284.91667824 -.00002887  00000-0 -16340-3 0  9995,2 53005  53.2172 282.1162 0001448  72.2849 146.1253 15.08837621 15409,6917.888000000001,95.438,540.754,538.751,0.0
53005.0,STARLINK-4288,PAYLOAD,2022-10-12 14:00:01,15.08846847,0.0001631,53.2164,279.1196,51.8746,189.6955,0.00048328,7.413e-05,0.0,0 STARLINK-4288,1 53005U 22076V   22285.58334491  .00007413  00000-0  48328-3 0  9999,2 53005  53.2164 279.1196 0001631  51.8746 189.6955 15.08846847  1301,6917.859,95.437,540.8530000000002,538.596,0.0
